{
  "type": "FeatureCollection",
  "features": [
    {
      "type": "Feature",
      "properties": {
        "norad_id": 67067,
        "name": "HULIANWANG DIGUI-127",
        "group": "last-30-days",
        "lat": -32.43409967237427,
        "lon": -79.33820096630068,
        "alt_km": 800.3428699462838,
        "timestamp": "2025-12-26T18:39:31.000436+00:00",
        "meta_object_name": "HULIANWANG DIGUI-127",
        "meta_object_id": "2025-295J",
        "meta_epoch": "2025-12-22T15:39:07.411968",
        "meta_mean_motion": 14.26251195,
        "meta_eccentricity": 0.00108509,
        "meta_inclination": 50.0053,
        "meta_ra_of_asc_node": 330.3407,
        "meta_arg_of_pericenter": 289.3117,
        "meta_mean_anomaly": 70.6623,
        "meta_ephemeris_type": 0,
        "meta_classification_type": "U",
        "meta_norad_cat_id": 67067,
        "meta_element_set_no": 999,
        "meta_rev_at_epoch": 153,
        "meta_bstar": -0.00027534515,
        "meta_mean_motion_dot": -8.25e-06,
        "meta_mean_motion_ddot": 0,
        "tle_line1": "1 67067U 25295J   25356.65216912 -.00000825  00000+0 -27535-3 0  9993",
        "tle_line2": "2 67067  50.0053 330.3407 0010850 289.3117  70.6623 14.26251195  1535"
      },
      "geometry": {
        "type": "Point",
        "coordinates": [
          -79.33820096630068,
          -32.43409967237427
        ]
      }
    },
    {
      "type": "Feature",
      "properties": {
        "norad_id": 67068,
        "name": "CZ-12 R/B",
        "group": "last-30-days",
        "lat": 19.811438697364007,
        "lon": -30.97214940721094,
        "alt_km": 790.4937820534806,
        "timestamp": "2025-12-26T18:39:31.000448+00:00",
        "meta_object_name": "CZ-12 R/B",
        "meta_object_id": "2025-295K",
        "meta_epoch": "2025-12-26T08:33:02.496096",
        "meta_mean_motion": 14.41130432,
        "meta_eccentricity": 0.00569013,
        "meta_inclination": 49.9942,
        "meta_ra_of_asc_node": 313.2422,
        "meta_arg_of_pericenter": 184.7305,
        "meta_mean_anomaly": 175.3084,
        "meta_ephemeris_type": 0,
        "meta_classification_type": "U",
        "meta_norad_cat_id": 67068,
        "meta_element_set_no": 999,
        "meta_rev_at_epoch": 207,
        "meta_bstar": 3.947533e-05,
        "meta_mean_motion_dot": -3.8e-07,
        "meta_mean_motion_ddot": 0,
        "tle_line1": "1 67068U 25295K   25360.35627889 -.00000038  00000+0  39475-4 0  9997",
        "tle_line2": "2 67068  49.9942 313.2422 0056901 184.7305 175.3084 14.41130432  2072"
      },
      "geometry": {
        "type": "Point",
        "coordinates": [
          -30.97214940721094,
          19.811438697364007
        ]
      }
    },
    {
      "type": "Feature",
      "properties": {
        "norad_id": 67069,
        "name": "XIWANG-5 02",
        "group": "last-30-days",
        "lat": -40.832542233016575,
        "lon": -57.780686505173676,
        "alt_km": 527.0081533007842,
        "timestamp": "2025-12-26T18:39:31.000459+00:00",
        "meta_object_name": "XIWANG-5 02",
        "meta_object_id": "2025-296A",
        "meta_epoch": "2025-12-23T12:00:44.103744",
        "meta_mean_motion": 15.16891516,
        "meta_eccentricity": 0.00145566,
        "meta_inclination": 41.3523,
        "meta_ra_of_asc_node": 40.1941,
        "meta_arg_of_pericenter": 102.8792,
        "meta_mean_anomaly": 257.3656,
        "meta_ephemeris_type": 0,
        "meta_classification_type": "U",
        "meta_norad_cat_id": 67069,
        "meta_element_set_no": 999,
        "meta_rev_at_epoch": 159,
        "meta_bstar": 0.00060249038,
        "meta_mean_motion_dot": 0.00011945,
        "meta_mean_motion_ddot": 0,
        "tle_line1": "1 67069U 25296A   25357.50051046  .00011945  00000+0  60249-3 0  9998",
        "tle_line2": "2 67069  41.3523  40.1941 0014556 102.8792 257.3656 15.16891516  1599"
      },
      "geometry": {
        "type": "Point",
        "coordinates": [
          -57.780686505173676,
          -40.832542233016575
        ]
      }
    },
    {
      "type": "Feature",
      "properties": {
        "norad_id": 67070,
        "name": "DEAR-5",
        "group": "last-30-days",
        "lat": -40.08178700182073,
        "lon": -51.590829704336066,
        "alt_km": 528.2941721921998,
        "timestamp": "2025-12-26T18:39:31.000471+00:00",
        "meta_object_name": "DEAR-5",
        "meta_object_id": "2025-296B",
        "meta_epoch": "2025-12-23T23:03:08.623008",
        "meta_mean_motion": 15.16917161,
        "meta_eccentricity": 0.0016166,
        "meta_inclination": 41.3551,
        "meta_ra_of_asc_node": 37.5614,
        "meta_arg_of_pericenter": 107.8349,
        "meta_mean_anomaly": 252.4237,
        "meta_ephemeris_type": 0,
        "meta_classification_type": "U",
        "meta_norad_cat_id": 67070,
        "meta_element_set_no": 999,
        "meta_rev_at_epoch": 165,
        "meta_bstar": 0.0002755,
        "meta_mean_motion_dot": 5.352e-05,
        "meta_mean_motion_ddot": 0,
        "tle_line1": "1 67070U 25296B   25357.96051647  .00005352  00000+0  27550-3 0  9990",
        "tle_line2": "2 67070  41.3551  37.5614 0016166 107.8349 252.4237 15.16917161  1654"
      },
      "geometry": {
        "type": "Point",
        "coordinates": [
          -51.590829704336066,
          -40.08178700182073
        ]
      }
    },
    {
      "type": "Feature",
      "properties": {
        "norad_id": 67071,
        "name": "KZ-11 R/B",
        "group": "last-30-days",
        "lat": 40.821334816395485,
        "lon": 100.96232261218611,
        "alt_km": 111.27395653482108,
        "timestamp": "2025-12-26T18:39:31.000481+00:00",
        "meta_object_name": "KZ-11 R/B",
        "meta_object_id": "2025-296C",
        "meta_epoch": "2025-12-24T07:54:11.602080",
        "meta_mean_motion": 15.73894626,
        "meta_eccentricity": 0.03315074,
        "meta_inclination": 41.3001,
        "meta_ra_of_asc_node": 37.0775,
        "meta_arg_of_pericenter": 35.4688,
        "meta_mean_anomaly": 326.7718,
        "meta_ephemeris_type": 0,
        "meta_classification_type": "U",
        "meta_norad_cat_id": 67071,
        "meta_element_set_no": 999,
        "meta_rev_at_epoch": 169,
        "meta_bstar": 0.00038975112,
        "meta_mean_motion_dot": 0.10609436,
        "meta_mean_motion_ddot": 7.766669e-06,
        "tle_line1": "1 67071U 25296C   25358.32930095  .10609436  77667-5  38975-3 0  9991",
        "tle_line2": "2 67071  41.3001  37.0775 0331507  35.4688 326.7718 15.73894626  1695"
      },
      "geometry": {
        "type": "Point",
        "coordinates": [
          100.96232261218611,
          40.821334816395485
        ]
      }
    },
    {
      "type": "Feature",
      "properties": {
        "norad_id": 67073,
        "name": "RAISE-4",
        "group": "last-30-days",
        "lat": 18.95907817929337,
        "lon": 145.3591808393535,
        "alt_km": 547.8157593899132,
        "timestamp": "2025-12-26T18:39:31.000493+00:00",
        "meta_object_name": "RAISE-4",
        "meta_object_id": "2025-297B",
        "meta_epoch": "2025-12-26T15:23:14.412192",
        "meta_mean_motion": 15.07246496,
        "meta_eccentricity": 0.00116773,
        "meta_inclination": 97.4853,
        "meta_ra_of_asc_node": 147.8154,
        "meta_arg_of_pericenter": 268.6462,
        "meta_mean_anomaly": 91.3428,
        "meta_ephemeris_type": 0,
        "meta_classification_type": "U",
        "meta_norad_cat_id": 67073,
        "meta_element_set_no": 999,
        "meta_rev_at_epoch": 188,
        "meta_bstar": 0.00039550952,
        "meta_mean_motion_dot": 5.91e-05,
        "meta_mean_motion_ddot": 0,
        "tle_line1": "1 67073U 25297B   25360.64113903  .00005910  00000+0  39551-3 0  9991",
        "tle_line2": "2 67073  97.4853 147.8154 0011677 268.6462  91.3428 15.07246496  1885"
      },
      "geometry": {
        "type": "Point",
        "coordinates": [
          145.3591808393535,
          18.95907817929337
        ]
      }
    },
    {
      "type": "Feature",
      "properties": {
        "norad_id": 67074,
        "name": "ELECTRON KICK STAGE R/B",
        "group": "last-30-days",
        "lat": 67.57458343948011,
        "lon": -12.503443206084308,
        "alt_km": 413.842493273879,
        "timestamp": "2025-12-26T18:39:31.000504+00:00",
        "meta_object_name": "ELECTRON KICK STAGE R/B",
        "meta_object_id": "2025-297C",
        "meta_epoch": "2025-12-26T07:23:54.373344",
        "meta_mean_motion": 15.60623913,
        "meta_eccentricity": 0.0187402,
        "meta_inclination": 97.4814,
        "meta_ra_of_asc_node": 148.4327,
        "meta_arg_of_pericenter": 220.2735,
        "meta_mean_anomaly": 138.4516,
        "meta_ephemeris_type": 0,
        "meta_classification_type": "U",
        "meta_norad_cat_id": 67074,
        "meta_element_set_no": 999,
        "meta_rev_at_epoch": 189,
        "meta_bstar": 0.0018067406,
        "meta_mean_motion_dot": 0.00363072,
        "meta_mean_motion_ddot": 3.8168156e-05,
        "tle_line1": "1 67074U 25297C   25360.30826821  .00363072  38168-4  18067-2 0  9990",
        "tle_line2": "2 67074  97.4814 148.4327 0187402 220.2735 138.4516 15.60623913  1893"
      },
      "geometry": {
        "type": "Point",
        "coordinates": [
          -12.503443206084308,
          67.57458343948011
        ]
      }
    }
  ]
}